[{"OBJECT_NAME":"STARLINK-2228","OBJECT_ID":"2021-041Z","EPOCH":"2026-03-09T19:29:07.386720","MEAN_MOTION":15.30193288,"ECCENTRICITY":0.00014412,"INCLINATION":53.16,"RA_OF_ASC_NODE":100.4463,"ARG_OF_PERICENTER":69.1924,"MEAN_ANOMALY":290.9231,"EPHEMERIS_TYPE":0,"CLASSIFICATION_TYPE":"U","NORAD_CAT_ID":48576,"ELEMENT_SET_NO":999,"REV_AT_EPOCH":26566,"BSTAR":-2.2342511e-5,"MEAN_MOTION_DOT":-1.021e-5,"MEAN_MOTION_DDOT":0},{"OBJECT_NAME":"OBJECT D","OBJECT_ID":"2024-085D","EPOCH":"2026-03-09T22:53:13.410816","MEAN_MOTION":15.33413141,"ECCENTRICITY":0.00152451,"INCLINATION":97.3312,"RA_OF_ASC_NODE":145.3953,"ARG_OF_PERICENTER":54.9672,"MEAN_ANOMALY":305.2998,"EPHEMERIS_TYPE":0,"CLASSIFICATION_TYPE":"U","NORAD_CAT_ID":59680,"ELEMENT_SET_NO":999,"REV_AT_EPOCH":10244,"BSTAR":0.00049264705,"MEAN_MOTION_DOT":0.00015903,"MEAN_MOTION_DDOT":0}]
